ONEWEB-0159             
1 48062U 21025W   24130.25304509  .00000324  00000+0  85288-3 0  9990
2 48062  87.8895 113.2726 0002087  80.1491 279.9874 13.13470346152667
ONEWEB-0164             
1 48063U 21025X   24130.23559326  .00000148  00000+0  37103-3 0  9995
2 48063  87.8895 113.2859 0002035  91.0688 269.0674 13.13471312152658
ONEWEB-0167             
1 48064U 21025Y   24129.96024610  .00000087  00000+0  20462-3 0  9999
2 48064  87.8897 113.3522 0002179  83.8458 276.2919 13.13467767152596
ONEWEB-0166             
1 48065U 21025Z   24129.90547643 -.00000751  00000+0 -20926-2 0  9994
2 48065  87.8891 113.3481 0001978  80.7653 279.3699 13.13473631152668
ONEWEB-0151             
1 48066U 21025AA  24129.90707740 -.00000217  00000+0 -62860-3 0  9992
2 48066  87.8893 113.3599 0002106  91.8133 268.3237 13.13470449152616
ONEWEB-0170             
1 48067U 21025AB  24129.91500651 -.00000180  00000+0 -52828-3 0  9998
2 48067  87.8896 113.3603 0002037 105.6787 254.4567 13.13471698152561
ONEWEB-0168             
1 48068U 21025AC  24130.51015187 -.00000277  00000+0 -79348-3 0  9995
2 48068  87.8899 113.2102 0002048  84.5052 275.6311 13.13470961152654
ONEWEB-0173             
1 48069U 21025AD  24129.89279082 -.00000140  00000+0 -41845-3 0  9991
2 48069  87.8899 113.3436 0002517  87.8683 272.2734 13.13470682152813
